{"type": "FeatureCollection", "features": [ {"type": "Feature", "properties": {"norad_id": 66648, "name": "COSMOS 2598 (RODNIK-S 23)", "group": "last-30-days", "lat": -35.801465655254454, "lon": -76.82247108805794, "alt_km": 1498.1206756594447, "timestamp": "2025-12-09T05:43:19.510680+00:00", "meta": {"OBJECT_NAME": "COSMOS 2598 (RODNIK-S 23)", "OBJECT_ID": "2025-273B", "EPOCH": "2025-12-08T20:15:22.813056", "MEAN_MOTION": 12.42861577, "ECCENTRICITY": 0.0007263, "INCLINATION": 82.5025, "RA_OF_ASC_NODE": 288.8725, "ARG_OF_PERICENTER": 260.6403, "MEAN_ANOMALY": 99.3856, "EPHEMERIS_TYPE": 0, "CLASSIFICATION_TYPE": "U", "NORAD_CAT_ID": 66648, "ELEMENT_SET_NO": 999, "REV_AT_EPOCH": 165, "BSTAR": -5.8509e-05, "MEAN_MOTION_DOT": 2e-08, "MEAN_MOTION_DDOT": 0}, "tle": {"line1": "1 66648U 25273B   25342.84401404  .00000002  00000+0 -58509-4 0  9993", "line2": "2 66648  82.5025 288.8725 0007263 260.6403  99.3856 12.42861577  1658"}}, "geometry": {"type": "Point", "coordinates": [-76.82247108805794, -35.801465655254454]}}, {"type": "Feature", "properties": {"norad_id": 66649, "name": "COSMOS 2599 (RODNIK-S 24)", "group": "last-30-days", "lat": -70.22406896440694, "lon": -92.84763268961316, "alt_km": 1500.7066431642252, "timestamp": "2025-12-09T05:43:19.510693+00:00", "meta": {"OBJECT_NAME": "COSMOS 2599 (RODNIK-S 24)", "OBJECT_ID": "2025-273C", "EPOCH": "2025-12-08T20:26:15.679968", "MEAN_MOTION": 12.41671811, "ECCENTRICITY": 0.00082, "INCLINATION": 82.5016, "RA_OF_ASC_NODE": 288.8785, "ARG_OF_PERICENTER": 308.8393, "MEAN_ANOMALY": 51.1954, "EPHEMERIS_TYPE": 0, "CLASSIFICATION_TYPE": "U", "NORAD_CAT_ID": 66649, "ELEMENT_SET_NO": 999, "REV_AT_EPOCH": 165, "BSTAR": -1.8157e-05, "MEAN_MOTION_DOT": 7e-08, "MEAN_MOTION_DDOT": 0}, "tle": {"line1": "1 66649U 25273C   25342.85157037  .00000007  00000+0 -18157-4 0  9995", "line2": "2 66649  82.5016 288.8785 0008200 308.8393  51.1954 12.41671811  1654"}}, "geometry": {"type": "Point", "coordinates": [-92.84763268961316, -70.22406896440694]}}, {"type": "Feature", "properties": {"norad_id": 66650, "name": "BEE-1000", "group": "last-30-days", "lat": -41.14599638265601, "lon": 83.66639907777108, "alt_km": 594.1561957200392, "timestamp": "2025-12-09T05:43:19.510704+00:00", "meta": {"OBJECT_NAME": "BEE-1000", "OBJECT_ID": "2025-274A", "EPOCH": "2025-12-08T19:04:16.843296", "MEAN_MOTION": 14.91640654, "ECCENTRICITY": 0.0010444, "INCLINATION": 97.7386, "RA_OF_ASC_NODE": 270.0548, "ARG_OF_PERICENTER": 266.8251, "MEAN_ANOMALY": 93.1773, "EPHEMERIS_TYPE": 0, "CLASSIFICATION_TYPE": "U", "NORAD_CAT_ID": 66650, "ELEMENT_SET_NO": 999, "REV_AT_EPOCH": 181, "BSTAR": 0.00030025, "MEAN_MOTION_DOT": 2.963e-05, "MEAN_MOTION_DDOT": 0}, "tle": {"line1": "1 66650U 25274A   25342.79463939  .00002963  00000+0  30025-3 0  9991", "line2": "2 66650  97.7386 270.0548 0010444 266.8251  93.1773 14.91640654  1814"}}, "geometry": {"type": "Point", "coordinates": [83.66639907777108, -41.14599638265601]}}, {"type": "Feature", "properties": {"norad_id": 66651, "name": "2025-274B", "group": "last-30-days", "lat": -44.48671972989295, "lon": 82.81539808310998, "alt_km": 593.4130906817527, "timestamp": "2025-12-09T05:43:19.510714+00:00", "meta": {"OBJECT_NAME": "2025-274B", "OBJECT_ID": "2025-274B", "EPOCH": "2025-12-08T19:03:24.934176", "MEAN_MOTION": 14.91750907, "ECCENTRICITY": 0.001076, "INCLINATION": 97.7383, "RA_OF_ASC_NODE": 270.0548, "ARG_OF_PERICENTER": 265.9944, "MEAN_ANOMALY": 94.0045, "EPHEMERIS_TYPE": 0, "CLASSIFICATION_TYPE": "U", "NORAD_CAT_ID": 66651, "ELEMENT_SET_NO": 999, "REV_AT_EPOCH": 181, "BSTAR": 0.0006236, "MEAN_MOTION_DOT": 6.235e-05, "MEAN_MOTION_DDOT": 0}, "tle": {"line1": "1 66651U 25274B   25342.79403859  .00006235  00000+0  62360-3 0  9990", "line2": "2 66651  97.7383 270.0548 0010760 265.9944  94.0045 14.91750907  1817"}}, "geometry": {"type": "Point", "coordinates": [82.81539808310998, -44.48671972989295]}}, {"type": "Feature", "properties": {"norad_id": 66652, "name": "2025-274C", "group": "last-30-days", "lat": -50.69738309713136, "lon": 80.93170291222529, "alt_km": 593.4808996907932, "timestamp": "2025-12-09T05:43:19.510725+00:00", "meta": {"OBJECT_NAME": "2025-274C", "OBJECT_ID": "2025-274C", "EPOCH": "2025-12-08T19:01:45.856704", "MEAN_MOTION": 14.91870277, "ECCENTRICITY": 0.0010425, "INCLINATION": 97.7388, "RA_OF_ASC_NODE": 270.0571, "ARG_OF_PERICENTER": 272.9104, "MEAN_ANOMALY": 87.0922, "EPHEMERIS_TYPE": 0, "CLASSIFICATION_TYPE": "U", "NORAD_CAT_ID": 66652, "ELEMENT_SET_NO": 999, "REV_AT_EPOCH": 181, "BSTAR": 0.00040006, "MEAN_MOTION_DOT": 3.99e-05, "MEAN_MOTION_DDOT": 0}, "tle": {"line1": "1 66652U 25274C   25342.79289186  .00003990  00000+0  40006-3 0  9994", "line2": "2 66652  97.7388 270.0571 0010425 272.9104  87.0922 14.91870277  1812"}}, "geometry": {"type": "Point", "coordinates": [80.93170291222529, -50.69738309713136]}}, {"type": "Feature", "properties": {"norad_id": 66653, "name": "2025-274D", "group": "last-30-days", "lat": -51.00055387906817, "lon": 80.82690791791576, "alt_km": 592.6401869296469, "timestamp": "2025-12-09T05:43:19.510737+00:00", "meta": {"OBJECT_NAME": "2025-274D", "OBJECT_ID": "2025-274D", "EPOCH": "2025-12-08T19:01:40.823040", "MEAN_MOTION": 14.91874447, "ECCENTRICITY": 0.0011294, "INCLINATION": 97.7386, "RA_OF_ASC_NODE": 270.0569, "ARG_OF_PERICENTER": 268.8048, "MEAN_ANOMALY": 91.1877, "EPHEMERIS_TYPE": 0, "CLASSIFICATION_TYPE": "U", "NORAD_CAT_ID": 66653, "ELEMENT_SET_NO": 999, "REV_AT_EPOCH": 181, "BSTAR": 0.00041219, "MEAN_MOTION_DOT": 4.114e-05, "MEAN_MOTION_DDOT": 0}, "tle": {"line1": "1 66653U 25274D   25342.79283360  .00004114  00000+0  41219-3 0  9999", "line2": "2 66653  97.7386 270.0569 0011294 268.8048  91.1877 14.91874447  1812"}}, "geometry": {"type": "Point", "coordinates": [80.82690791791576, -51.00055387906817]}}, {"type": "Feature", "properties": {"norad_id": 66654, "name": "JACK E", "group": "last-30-days", "lat": -58.26727700306281, "lon": 77.7947040335199, "alt_km": 591.4794741536471, "timestamp": "2025-12-09T05:43:19.510749+00:00", "meta": {"OBJECT_NAME": "JACK E", "OBJECT_ID": "2025-274E", "EPOCH": "2025-12-08T18:59:44.838816", "MEAN_MOTION": 14.9204918, "ECCENTRICITY": 0.0011871, "INCLINATION": 97.7389, "RA_OF_ASC_NODE": 270.0592, "ARG_OF_PERICENTER": 270.3927, "MEAN_ANOMALY": 89.5932, "EPHEMERIS_TYPE": 0, "CLASSIFICATION_TYPE": "U", "NORAD_CAT_ID": 66654, "ELEMENT_SET_NO": 999, "REV_AT_EPOCH": 181, "BSTAR": 0.00047984, "MEAN_MOTION_DOT": 4.821e-05, "MEAN_MOTION_DDOT": 0}, "tle": {"line1": "1 66654U 25274E   25342.79149119  .00004821  00000+0  47984-3 0  9993", "line2": "2 66654  97.7389 270.0592 0011871 270.3927  89.5932 14.92049180  1819"}}, "geometry": {"type": "Point", "coordinates": [77.7947040335199, -58.26727700306281]}}, {"type": "Feature", "properties": {"norad_id": 66655, "name": "2025-274F", "group": "last-30-days", "lat": -68.17754191218883, "lon": 70.6637861503827, "alt_km": 596.2292420400327, "timestamp": "2025-12-09T05:43:19.510760+00:00", "meta": {"OBJECT_NAME": "2025-274F", "OBJECT_ID": "2025-274F", "EPOCH": "2025-12-08T18:57:10.717632", "MEAN_MOTION": 14.92504144, "ECCENTRICITY": 0.0005491, "INCLINATION": 97.7329, "RA_OF_ASC_NODE": 270.0601, "ARG_OF_PERICENTER": 323.8556, "MEAN_ANOMALY": 36.2292, "EPHEMERIS_TYPE": 0, "CLASSIFICATION_TYPE": "U", "NORAD_CAT_ID": 66655, "ELEMENT_SET_NO": 999, "REV_AT_EPOCH": 181, "BSTAR": 0.0015161, "MEAN_MOTION_DOT": 0.00015539, "MEAN_MOTION_DDOT": 0}, "tle": {"line1": "1 66655U 25274F   25342.78970738  .00015539  00000+0  15161-2 0  9991", "line2": "2 66655  97.7329 270.0601 0005491 323.8556  36.2292 14.92504144  1812"}}, "geometry": {"type": "Point", "coordinates": [70.6637861503827, -68.17754191218883]}}, {"type": "Feature", "properties": {"norad_id": 66656, "name": "2025-274G", "group": "last-30-days", "lat": -66.13138025563818, "lon": 72.60318383850391, "alt_km": 590.2043147564318, "timestamp": "2025-12-09T05:43:19.510770+00:00", "meta": {"OBJECT_NAME": "2025-274G", "OBJECT_ID": "2025-274G", "EPOCH": "2025-12-08T18:57:37.180224", "MEAN_MOTION": 14.92237325, "ECCENTRICITY": 0.0012492, "INCLINATION": 97.7387, "RA_OF_ASC_NODE": 270.0607, "ARG_OF_PERICENTER": 272.2172, "MEAN_ANOMALY": 87.7617, "EPHEMERIS_TYPE": 0, "CLASSIFICATION_TYPE": "U", "NORAD_CAT_ID": 66656, "ELEMENT_SET_NO": 999, "REV_AT_EPOCH": 181, "BSTAR": 0.00050367, "MEAN_MOTION_DOT": 5.088e-05, "MEAN_MOTION_DDOT": 0}, "tle": {"line1": "1 66656U 25274G   25342.79001366  .00005088  00000+0  50367-3 0  9991", "line2": "2 66656  97.7387 270.0607 0012492 272.2172  87.7617 14.92237325  1819"}}, "geometry": {"type": "Point", "coordinates": [72.60318383850391, -66.13138025563818]}}, {"type": "Feature", "properties": {"norad_id": 66657, "name": "SPIRONE", "group": "last-30-days", "lat": -73.51540671564194, "lon": 63.147589448570265, "alt_km": 591.3782524274511, "timestamp": "2025-12-09T05:43:19.510781+00:00", "meta": {"OBJECT_NAME": "SPIRONE", "OBJECT_ID": "2025-274H", "EPOCH": "2025-12-08T18:55:32.187072", "MEAN_MOTION": 14.92416199, "ECCENTRICITY": 0.0010979, "INCLINATION": 97.7386, "RA_OF_ASC_NODE": 270.0622, "ARG_OF_PERICENTER": 291.0706, "MEAN_ANOMALY": 68.9339, "EPHEMERIS_TYPE": 0, "CLASSIFICATION_TYPE": "U", "NORAD_CAT_ID": 66657, "ELEMENT_SET_NO": 999, "REV_AT_EPOCH": 181, "BSTAR": 0.0004824, "MEAN_MOTION_DOT": 4.891e-05, "MEAN_MOTION_DDOT": 0}, "tle": {"line1": "1 66657U 25274H   25342.78856698  .00004891  00000+0  48240-3 0  9995", "line2": "2 66657  97.7386 270.0622 0010979 291.0706  68.9339 14.92416199  1816"}}, "geometry": {"type": "Point", "coordinates": [63.147589448570265, -73.51540671564194]}}]}